0 CZ-4 DEB
1 26214U 99057DC  13282.42946765  .00002172  00000-0  30807-3 0  3980
2 26214 098.6016 356.0955 0038458 022.1091 108.2354 14.77667485729009
0 CZ-4 DEB
1 26214U 99057DC  13287.15060844  .00002795  00000-0  39387-3 0  4007
2 26214 098.6018 001.1304 0038291 007.1184 022.9401 14.77682508729703
0 CZ-4 DEB
1 26214U 99057DC  13289.47007729  .00003819  00000-0  53492-3 0  4019
2 26214 098.6016 003.6050 0038131 359.7026 121.8622 14.77699859730040
0 CZ-4 DEB
1 26214U 99057DC  13291.50230764  .00003941  00000-0  55152-3 0  4025
2 26214 098.6013 005.7725 0038074 353.2506 132.8123 14.77712047730343
0 CZ-4 DEB
1 26214U 99057DC  13293.53323079  .00004114  00000-0  57536-3 0  4034
2 26214 098.6001 007.9390 0037928 346.5801 137.1332 14.77723304730643
0 CZ-4 DEB
1 26214U 99057DC  13295.83432009  .00003803  00000-0  53239-3 0  4044
2 26214 098.5997 010.3932 0037778 339.2198 138.6059 14.77739010730987
